{"type": "FeatureCollection", "features": [ {"type": "Feature", "properties": {"norad_id": 28659, "name": "DIRECTV 8", "group": "intelsat", "lat": 0.04100382728214819, "lon": 120.4182073703085, "alt_km": 35797.843115798336, "timestamp": "2025-12-23T09:49:06.743806+00:00", "meta": {"OBJECT_NAME": "DIRECTV 8", "OBJECT_ID": "2005-019A", "EPOCH": "2025-12-22T21:09:31.000320", "MEAN_MOTION": 1.00271524, "ECCENTRICITY": 0.00029245, "INCLINATION": 0.0181, "RA_OF_ASC_NODE": 18.4024, "ARG_OF_PERICENTER": 263.1502, "MEAN_ANOMALY": 8.4647, "EPHEMERIS_TYPE": 0, "CLASSIFICATION_TYPE": "U", "NORAD_CAT_ID": 28659, "ELEMENT_SET_NO": 999, "REV_AT_EPOCH": 7530, "BSTAR": 0, "MEAN_MOTION_DOT": 2.2e-07, "MEAN_MOTION_DDOT": 0}, "tle": {"line1": "1 28659U 05019A   25356.88160880  .00000022  00000+0  00000+0 0  9997", "line2": "2 28659   0.0181  18.4024 0002924 263.1502   8.4647  1.00271524 75303"}}, "geometry": {"type": "Point", "coordinates": [120.4182073703085, 0.04100382728214819]}}, {"type": "Feature", "properties": {"norad_id": 28702, "name": "GALAXY 28 (G-28)", "group": "intelsat", "lat": 2.684672842740276, "lon": 150.7292432772202, "alt_km": 35793.1861312959, "timestamp": "2025-12-23T09:49:06.743819+00:00", "meta": {"OBJECT_NAME": "GALAXY 28 (G-28)", "OBJECT_ID": "2005-022A", "EPOCH": "2025-12-20T00:49:30.482112", "MEAN_MOTION": 1.00271047, "ECCENTRICITY": 0.00029384, "INCLINATION": 2.8382, "RA_OF_ASC_NODE": 81.1982, "ARG_OF_PERICENTER": 194.0723, "MEAN_ANOMALY": 97.2981, "EPHEMERIS_TYPE": 0, "CLASSIFICATION_TYPE": "U", "NORAD_CAT_ID": 28702, "ELEMENT_SET_NO": 999, "REV_AT_EPOCH": 5017, "BSTAR": 0, "MEAN_MOTION_DOT": -1.65e-06, "MEAN_MOTION_DDOT": 0}, "tle": {"line1": "1 28702U 05022A   25354.03438058 -.00000165  00000+0  00000+0 0  9999", "line2": "2 28702   2.8382  81.1982 0002938 194.0723  97.2981  1.00271047 50172"}}, "geometry": {"type": "Point", "coordinates": [150.7292432772202, 2.684672842740276]}}, {"type": "Feature", "properties": {"norad_id": 29236, "name": "GALAXY 16 (G-16)", "group": "intelsat", "lat": -0.002042741202853025, "lon": 140.4374058582775, "alt_km": 35793.73703929334, "timestamp": "2025-12-23T09:49:06.743832+00:00", "meta": {"OBJECT_NAME": "GALAXY 16 (G-16)", "OBJECT_ID": "2006-023A", "EPOCH": "2025-12-22T19:32:17.808864", "MEAN_MOTION": 1.00270734, "ECCENTRICITY": 0.00025149, "INCLINATION": 0.0081, "RA_OF_ASC_NODE": 128.8096, "ARG_OF_PERICENTER": 145.2151, "MEAN_ANOMALY": 11.6522, "EPHEMERIS_TYPE": 0, "CLASSIFICATION_TYPE": "U", "NORAD_CAT_ID": 29236, "ELEMENT_SET_NO": 999, "REV_AT_EPOCH": 7120, "BSTAR": 0, "MEAN_MOTION_DOT": -1.05e-06, "MEAN_MOTION_DDOT": 0}, "tle": {"line1": "1 29236U 06023A   25356.81409501 -.00000105  00000+0  00000+0 0  9997", "line2": "2 29236   0.0081 128.8096 0002514 145.2151  11.6522  1.00270734 71209"}}, "geometry": {"type": "Point", "coordinates": [140.4374058582775, -0.002042741202853025]}}, {"type": "Feature", "properties": {"norad_id": 29494, "name": "DIRECTV 9S", "group": "intelsat", "lat": 1.6328370389931197, "lon": 138.22960846498077, "alt_km": 35794.81461936123, "timestamp": "2025-12-23T09:49:06.743843+00:00", "meta": {"OBJECT_NAME": "DIRECTV 9S", "OBJECT_ID": "2006-043A", "EPOCH": "2025-12-22T14:23:47.349312", "MEAN_MOTION": 1.00272238, "ECCENTRICITY": 0.00028786, "INCLINATION": 1.964, "RA_OF_ASC_NODE": 83.1086, "ARG_OF_PERICENTER": 193.1253, "MEAN_ANOMALY": 289.9086, "EPHEMERIS_TYPE": 0, "CLASSIFICATION_TYPE": "U", "NORAD_CAT_ID": 29494, "ELEMENT_SET_NO": 999, "REV_AT_EPOCH": 4961, "BSTAR": 0, "MEAN_MOTION_DOT": -9.3e-07, "MEAN_MOTION_DDOT": 0}, "tle": {"line1": "1 29494U 06043A   25356.59985358 -.00000093  00000+0  00000+0 0  9995", "line2": "2 29494   1.9640  83.1086 0002878 193.1253 289.9086  1.00272238 49612"}}, "geometry": {"type": "Point", "coordinates": [138.22960846498077, 1.6328370389931197]}}, {"type": "Feature", "properties": {"norad_id": 31307, "name": "GALAXY 17 (G-17)", "group": "intelsat", "lat": 2.420396621272857, "lon": 154.40970753161784, "alt_km": 35790.13666212546, "timestamp": "2025-12-23T09:49:06.743855+00:00", "meta": {"OBJECT_NAME": "GALAXY 17 (G-17)", "OBJECT_ID": "2007-016B", "EPOCH": "2025-12-22T21:19:15.066912", "MEAN_MOTION": 1.00269711, "ECCENTRICITY": 0.00053352, "INCLINATION": 2.5239, "RA_OF_ASC_NODE": 82.1716, "ARG_OF_PERICENTER": 171.6525, "MEAN_ANOMALY": 72.6914, "EPHEMERIS_TYPE": 0, "CLASSIFICATION_TYPE": "U", "NORAD_CAT_ID": 31307, "ELEMENT_SET_NO": 999, "REV_AT_EPOCH": 6803, "BSTAR": 0, "MEAN_MOTION_DOT": -1.86e-06, "MEAN_MOTION_DDOT": 0}, "tle": {"line1": "1 31307U 07016B   25356.88836883 -.00000186  00000+0  00000+0 0  9995", "line2": "2 31307   2.5239  82.1716 0005335 171.6525  72.6914  1.00269711 68038"}}, "geometry": {"type": "Point", "coordinates": [154.40970753161784, 2.420396621272857]}}, {"type": "Feature", "properties": {"norad_id": 31862, "name": "DIRECTV 10", "group": "intelsat", "lat": 0.00583630397794807, "lon": 136.68057397546863, "alt_km": 35785.384497071536, "timestamp": "2025-12-23T09:49:06.743867+00:00", "meta": {"OBJECT_NAME": "DIRECTV 10", "OBJECT_ID": "2007-032A", "EPOCH": "2025-12-22T14:23:17.397024", "MEAN_MOTION": 1.00274167, "ECCENTRICITY": 2.112e-05, "INCLINATION": 0.0071, "RA_OF_ASC_NODE": 104.9786, "ARG_OF_PERICENTER": 118.9337, "MEAN_ANOMALY": 340.5167, "EPHEMERIS_TYPE": 0, "CLASSIFICATION_TYPE": "U", "NORAD_CAT_ID": 31862, "ELEMENT_SET_NO": 999, "REV_AT_EPOCH": 4382, "BSTAR": 0, "MEAN_MOTION_DOT": -8.2e-07, "MEAN_MOTION_DDOT": 0}, "tle": {"line1": "1 31862U 07032A   25356.59950691 -.00000082  00000+0  00000+0 0  9996", "line2": "2 31862   0.0071 104.9786 0000211 118.9337 340.5167  1.00274167 43822"}}, "geometry": {"type": "Point", "coordinates": [136.68057397546863, 0.00583630397794807]}}, {"type": "Feature", "properties": {"norad_id": 32253, "name": "INTELSAT 11 (IS-11)", "group": "intelsat", "lat": -1.1758254529235652, "lon": 58.310591381643455, "alt_km": 36166.99696612541, "timestamp": "2025-12-23T09:49:06.743878+00:00", "meta": {"OBJECT_NAME": "INTELSAT 11 (IS-11)", "OBJECT_ID": "2007-044B", "EPOCH": "2025-12-22T19:09:49.960224", "MEAN_MOTION": 0.99052824, "ECCENTRICITY": 0.0008553, "INCLINATION": 3.1047, "RA_OF_ASC_NODE": 80.8652, "ARG_OF_PERICENTER": 169.9478, "MEAN_ANOMALY": 309.7083, "EPHEMERIS_TYPE": 0, "CLASSIFICATION_TYPE": "U", "NORAD_CAT_ID": 32253, "ELEMENT_SET_NO": 999, "REV_AT_EPOCH": 6670, "BSTAR": 0, "MEAN_MOTION_DOT": -1.28e-06, "MEAN_MOTION_DDOT": 0}, "tle": {"line1": "1 32253U 07044B   25356.79849491 -.00000128  00000+0  00000+0 0  9992", "line2": "2 32253   3.1047  80.8652 0008553 169.9478 309.7083  0.99052824 66704"}}, "geometry": {"type": "Point", "coordinates": [58.310591381643455, -1.1758254529235652]}}, {"type": "Feature", "properties": {"norad_id": 32388, "name": "HORIZONS-2", "group": "intelsat", "lat": 2.141864309192846, "lon": 165.63000379873438, "alt_km": 35793.732426043876, "timestamp": "2025-12-23T09:49:06.743890+00:00", "meta": {"OBJECT_NAME": "HORIZONS-2", "OBJECT_ID": "2007-063B", "EPOCH": "2025-12-22T21:22:29.757216", "MEAN_MOTION": 1.00270659, "ECCENTRICITY": 0.0004651, "INCLINATION": 2.1464, "RA_OF_ASC_NODE": 82.8521, "ARG_OF_PERICENTER": 195.4042, "MEAN_ANOMALY": 60.2691, "EPHEMERIS_TYPE": 0, "CLASSIFICATION_TYPE": "U", "NORAD_CAT_ID": 32388, "ELEMENT_SET_NO": 999, "REV_AT_EPOCH": 6604, "BSTAR": 0, "MEAN_MOTION_DOT": -2.33e-06, "MEAN_MOTION_DDOT": 0}, "tle": {"line1": "1 32388U 07063B   25356.89062219 -.00000233  00000+0  00000+0 0  9995", "line2": "2 32388   2.1464  82.8521 0004651 195.4042  60.2691  1.00270659 66040"}}, "geometry": {"type": "Point", "coordinates": [165.63000379873438, 2.141864309192846]}}, {"type": "Feature", "properties": {"norad_id": 32729, "name": "DIRECTV 11", "group": "intelsat", "lat": 0.0023877790181124296, "lon": 140.24666243683382, "alt_km": 35784.24905784005, "timestamp": "2025-12-23T09:49:06.743902+00:00", "meta": {"OBJECT_NAME": "DIRECTV 11", "OBJECT_ID": "2008-013A", "EPOCH": "2025-12-21T16:09:00.789984", "MEAN_MOTION": 1.00267418, "ECCENTRICITY": 8.567e-05, "INCLINATION": 0.0458, "RA_OF_ASC_NODE": 200.3144, "ARG_OF_PERICENTER": 330.5483, "MEAN_ANOMALY": 62.6867, "EPHEMERIS_TYPE": 0, "CLASSIFICATION_TYPE": "U", "NORAD_CAT_ID": 32729, "ELEMENT_SET_NO": 999, "REV_AT_EPOCH": 4381, "BSTAR": 0, "MEAN_MOTION_DOT": -1.03e-06, "MEAN_MOTION_DDOT": 0}, "tle": {"line1": "1 32729U 08013A   25355.67292581 -.00000103  00000+0  00000+0 0  9998", "line2": "2 32729   0.0458 200.3144 0000856 330.5483  62.6867  1.00267418 43811"}}, "geometry": {"type": "Point", "coordinates": [140.24666243683382, 0.0023877790181124296]}}, {"type": "Feature", "properties": {"norad_id": 32951, "name": "GALAXY 18 (G-18)", "group": "intelsat", "lat": 0.013462863290457663, "lon": 116.45032175520798, "alt_km": 35797.53670495665, "timestamp": "2025-12-23T09:49:06.743914+00:00", "meta": {"OBJECT_NAME": "GALAXY 18 (G-18)", "OBJECT_ID": "2008-024A", "EPOCH": "2025-12-22T17:42:58.277664", "MEAN_MOTION": 1.00271901, "ECCENTRICITY": 0.00029085, "INCLINATION": 0.018, "RA_OF_ASC_NODE": 293.7428, "ARG_OF_PERICENTER": 342.0585, "MEAN_ANOMALY": 318.4704, "EPHEMERIS_TYPE": 0, "CLASSIFICATION_TYPE": "U", "NORAD_CAT_ID": 32951, "ELEMENT_SET_NO": 999, "REV_AT_EPOCH": 4408, "BSTAR": 0, "MEAN_MOTION_DOT": 4.7e-07, "MEAN_MOTION_DDOT": 0}, "tle": {"line1": "1 32951U 08024A   25356.73817451  .00000047  00000+0  00000+0 0  9990", "line2": "2 32951   0.0180 293.7428 0002908 342.0585 318.4704  1.00271901 44086"}}, "geometry": {"type": "Point", "coordinates": [116.45032175520798, 0.013462863290457663]}}]}